NORAD_CAT_ID,OBJECT_NAME,OBJECT_TYPE,EPOCH,MEAN_MOTION,ECCENTRICITY,INCLINATION,RA_OF_ASC_NODE,ARG_OF_PERICENTER,MEAN_ANOMALY,BSTAR,MEAN_MOTION_DOT,MEAN_MOTION_DDOT,TLE_LINE0,TLE_LINE1,TLE_LINE2,SEMIMAJOR_AXIS,PERIOD,APOGEE,PERIGEE,DECAYED
53260.0,STARLINK-4136,PAYLOAD,2023-04-23 01:21:20,15.08825221,2.93e-05,53.216,235.0854,149.906,210.1949,-0.00046623,-7.697e-05,0.0,0 STARLINK-4136,1 53260U 22086U   23113.05648573 -.00007697  00000-0 -46623-3 0  9997,2 53260  53.2160 235.0854 0000293 149.9060 210.1949 15.08825221 42124,6917.926,95.438,539.993,539.588,0.0
53260.0,STARLINK-4136,PAYLOAD,2023-04-23 20:25:58,15.08855862,3.39e-05,53.2155,231.5168,196.8622,163.2359,0.0013901,0.00021914,0.0,0 STARLINK-4136,1 53260U 22086U   23113.85136626  .00021914  00000-0  13901-2 0  9994,2 53260  53.2155 231.5168 0000339 196.8622 163.2359 15.08855862 42423,6917.832,95.437,539.931,539.462,0.0
53260.0,STARLINK-4136,PAYLOAD,2023-04-24 01:12:08,15.08854426,0.0001167,53.2146,230.6251,92.4242,267.6884,0.0017223,0.0002724,0.0,0 STARLINK-4136,1 53260U 22086U   23114.05009443  .00027240  00000-0  17223-2 0  9992,2 53260  53.2146 230.6251 0001167  92.4242 267.6884 15.08854426 42275,6917.836,95.437,540.509,538.894,0.0
53260.0,STARLINK-4136,PAYLOAD,2023-04-24 07:33:40,15.08909184,0.0001305,53.2158,229.4372,79.669,280.4449,0.004808,0.00077217,0.0,0 STARLINK-4136,1 53260U 22086U   23114.31504977  .00077217  00000-0  48080-2 0  9997,2 53260  53.2158 229.4372 0001305  79.6690 280.4449 15.08909184 42313,6917.669,95.433,540.437,538.631,0.0
53260.0,STARLINK-4136,PAYLOAD,2023-04-25 10:35:12,15.08807918,0.0001089,53.2156,224.3803,122.986,237.1237,-0.00077714,-0.00012624,0.0,0 STARLINK-4136,1 53260U 22086U   23115.44111925 -.00012624  00000-0 -77714-3 0  9999,2 53260  53.2156 224.3803 0001089 122.9860 237.1237 15.08807918 42668,6917.978,95.44,540.597,539.09,0.0
53260.0,STARLINK-4136,PAYLOAD,2023-04-25 18:32:09,15.08803323,0.0001238,53.2155,222.8934,119.3159,240.7957,0.0012848,0.00020198,0.0,0 STARLINK-4136,1 53260U 22086U   23115.77233187  .00020198  00000-0  12848-2 0  9999,2 53260  53.2155 222.8934 0001238 119.3159 240.7957 15.08803323 42533,6917.992,95.44,540.714,539.001,0.0
53260.0,STARLINK-4136,PAYLOAD,2023-04-26 12:01:24,15.08832249,0.000113,53.2153,219.6234,114.0798,246.0312,0.0013714,0.00021601,0.0,0 STARLINK-4136,1 53260U 22086U   23116.50098262  .00021601  00000-0  13714-2 0  9997,2 53260  53.2153 219.6234 0001130 114.0798 246.0312 15.08832249 42825,6917.904,95.438,540.551,538.987,0.0
53260.0,STARLINK-4136,PAYLOAD,2023-04-26 16:47:34,15.08840267,0.0001141,53.2157,218.7312,115.3927,244.7183,0.0013645,0.00021495,0.0,0 STARLINK-4136,1 53260U 22086U   23116.69970295  .00021495  00000-0  13645-2 0  9996,2 53260  53.2157 218.7312 0001141 115.3927 244.7183 15.08840267 42859,6917.88,95.438,540.534,538.955,0.0
53260.0,STARLINK-4136,PAYLOAD,2023-04-27 11:52:11,15.08853393,0.0001185,53.2159,215.1631,112.052,248.0598,0.00084324,0.00013163,0.0,0 STARLINK-4136,1 53260U 22086U   23117.49458164  .00013163  00000-0  84324-3 0  9997,2 53260  53.2159 215.1631 0001185 112.0520 248.0598 15.08853393 42971,6917.839,95.437,540.524,538.885,0.0
53260.0,STARLINK-4136,PAYLOAD,2023-04-27 18:13:43,15.08867587,0.0001159,53.2158,213.9734,111.4544,248.6572,0.0011405,0.00017923,0.0,0 STARLINK-4136,1 53260U 22086U   23117.75953701  .00017923  00000-0  11405-2 0  9990,2 53260  53.2158 213.9734 0001159 111.4544 248.6572 15.08867587 42833,6917.796,95.436,540.463,538.859,0.0
53260.0,STARLINK-4136,PAYLOAD,2023-04-28 06:56:49,15.08860549,0.0001892,53.2162,211.5948,78.4645,281.6559,0.00061086,9.453e-05,0.0,0 STARLINK-4136,1 53260U 22086U   23118.28945659  .00009453  00000-0  61086-3 0  9992,2 53260  53.2162 211.5948 0001892  78.4645 281.6559 15.08860549 42919,6917.818,95.436,540.991,538.374,0.0
53260.0,STARLINK-4136,PAYLOAD,2023-04-28 13:18:21,15.08861777,0.0002122,53.2183,210.4103,120.8496,239.2705,4.8658e-05,4.87e-06,0.0,0 STARLINK-4136,1 53260U 22086U   23118.55441244  .00000487  00000-0  48658-4 0  9992,2 53260  53.2183 210.4103 0002122 120.8496 239.2705 15.08861777 43137,6917.814,95.436,541.147,538.211,0.0
53260.0,STARLINK-4136,PAYLOAD,2023-04-29 05:12:12,15.0884385,0.0001184,53.216,207.4321,97.8152,262.2975,-1.2321e-05,-4.84e-06,0.0,0 STARLINK-4136,1 53260U 22086U   23119.21681210 -.00000484  00000-0 -12321-4 0  9992,2 53260  53.2160 207.4321 0001184  97.8152 262.2975 15.08843850 43057,6917.869,95.437,540.553,538.915,0.0
53260.0,STARLINK-4136,PAYLOAD,2023-04-29 11:33:45,15.08847339,0.0001499,53.2162,206.2418,96.059,264.0573,8.9403e-05,1.135e-05,0.0,0 STARLINK-4136,1 53260U 22086U   23119.48177309  .00001135  00000-0  89403-4 0  9997,2 53260  53.2162 206.2418 0001499  96.0590 264.0573 15.08847339 43273,6917.858,95.437,540.76,538.686,0.0
53260.0,STARLINK-4136,PAYLOAD,2023-04-29 17:55:17,15.08856481,0.000128,53.2154,205.0525,88.0161,272.0978,0.00078815,0.00012283,0.0,0 STARLINK-4136,1 53260U 22086U   23119.74673015  .00012283  00000-0  78815-3 0  9991,2 53260  53.2154 205.0525 0001280  88.0161 272.0978 15.08856481 43134,6917.83,95.437,540.58,538.81,0.0
53260.0,STARLINK-4136,PAYLOAD,2023-04-30 12:59:55,15.08840231,0.0001217,53.2167,201.4875,84.3329,275.7802,0.00031067,4.66e-05,0.0,0 STARLINK-4136,1 53260U 22086U   23120.54161529  .00004660  00000-0  31067-3 0  9991,2 53260  53.2167 201.4875 0001217  84.3329 275.7802 15.08840231 43436,6917.88,95.438,540.587,538.903,0.0
53260.0,STARLINK-4136,PAYLOAD,2023-04-30 14:35:18,15.0884591,0.0001268,53.2155,201.1874,84.8002,275.3135,0.00050447,7.751e-05,0.0,0 STARLINK-4136,1 53260U 22086U   23120.60785454  .00007751  00000-0  50447-3 0  9994,2 53260  53.2155 201.1874 0001268  84.8002 275.3135 15.08845910 43263,6917.862,95.437,540.605,538.85,0.0
53260.0,STARLINK-4136,PAYLOAD,2023-05-01 12:50:43,15.08843143,9.63e-05,53.2155,197.0259,90.1144,269.9958,0.00068592,0.00010646,0.0,0 STARLINK-4136,1 53260U 22086U   23121.53522036  .00010646  00000-0  68592-3 0  9999,2 53260  53.2155 197.0259 0000963  90.1144 269.9958 15.08843143 43405,6917.871,95.437,540.402,539.07,0.0
53260.0,STARLINK-4136,PAYLOAD,2023-05-02 11:06:06,15.08860098,0.0001059,53.2157,192.8601,78.8037,281.3074,0.00094244,0.00014751,0.0,0 STARLINK-4136,1 53260U 22086U   23122.46257678  .00014751  00000-0  94244-3 0  9993,2 53260  53.2157 192.8601 0001059  78.8037 281.3074 15.08860098 43722,6917.819,95.436,540.417,538.951,0.0
53260.0,STARLINK-4136,PAYLOAD,2023-05-02 14:16:52,15.08865184,0.0001078,53.2162,192.2644,94.0509,266.0606,0.00099065,0.00015524,0.0,0 STARLINK-4136,1 53260U 22086U   23122.59505399  .00015524  00000-0  99065-3 0  9998,2 53260  53.2162 192.2644 0001078  94.0509 266.0606 15.08865184 43748,6917.803,95.436,540.414,538.923,0.0
53260.0,STARLINK-4136,PAYLOAD,2023-05-02 22:13:48,15.08848469,0.0001186,53.217,190.7765,141.9902,218.1174,0.00017799,2.547e-05,0.0,0 STARLINK-4136,1 53260U 22086U   23122.92625442  .00002547  00000-0  17799-3 0  9992,2 53260  53.2170 190.7765 0001186 141.9902 218.1174 15.08848469 43614,6917.855,95.437,540.54,538.899,0.0
53260.0,STARLINK-4136,PAYLOAD,2023-05-03 10:56:53,15.08840462,0.0001216,53.2169,188.4017,88.1486,271.9645,2.9924e-05,1.88e-06,0.0,0 STARLINK-4136,1 53260U 22086U   23123.45617860  .00000188  00000-0  29924-4 0  9999,2 53260  53.2169 188.4017 0001216  88.1486 271.9645 15.08840462 43692,6917.879,95.438,540.585,538.903,0.0
53260.0,STARLINK-4136,PAYLOAD,2023-05-03 14:07:40,15.08840767,0.0001252,53.2168,187.8056,91.1306,268.983,6.7783e-05,7.91e-06,0.0,0 STARLINK-4136,1 53260U 22086U   23123.58865840  .00000791  00000-0  67783-4 0  9991,2 53260  53.2168 187.8056 0001252  91.1306 268.9830 15.08840767 43894,6917.878,95.438,540.609,538.877,0.0
53260.0,STARLINK-4136,PAYLOAD,2023-05-04 10:47:40,15.08844673,0.0001082,53.2154,183.9411,87.179,272.9326,0.00013877,1.922e-05,0.0,0 STARLINK-4136,1 53260U 22086U   23124.44977845  .00001922  00000-0  13877-3 0  9997,2 53260  53.2154 183.9411 0001082  87.1790 272.9326 15.08844673 44025,6917.866,95.437,540.48,538.983,0.0
53260.0,STARLINK-4136,PAYLOAD,2023-05-04 20:19:59,15.08836254,8.18e-05,53.2159,182.1553,93.5781,266.5305,1.9074e-05,1.6e-07,0.0,0 STARLINK-4136,1 53260U 22086U   23124.84722125  .00000016  00000-0  19074-4 0  9999,2 53260  53.2159 182.1553 0000818  93.5781 266.5305 15.08836254 43903,6917.892,95.438,540.323,539.191,0.0
53260.0,STARLINK-4136,PAYLOAD,2023-05-05 20:10:47,15.08835696,7.96e-05,53.2148,177.6935,70.0616,290.0462,7.0984e-05,8.42e-06,0.0,0 STARLINK-4136,1 53260U 22086U   23125.84082410  .00000842  00000-0  70984-4 0  9990,2 53260  53.2148 177.6935 0000796  70.0616 290.0462 15.08835696 44238,6917.894,95.438,540.309,539.208,0.0
53260.0,STARLINK-4136,PAYLOAD,2023-05-06 07:18:29,15.08835177,0.0001014,53.2152,175.616,92.9802,267.1306,0.00010896,1.447e-05,0.0,0 STARLINK-4136,1 53260U 22086U   23126.30450883  .00001447  00000-0  10896-3 0  9992,2 53260  53.2152 175.6160 0001014  92.9802 267.1306 15.08835177 44309,6917.895,95.438,540.462,539.059,0.0
53260.0,STARLINK-4136,PAYLOAD,2023-05-07 02:23:07,15.08850227,0.0001124,53.2149,172.0451,87.0782,273.0339,0.00066603,0.00010331,0.0,0 STARLINK-4136,1 53260U 22086U   23127.09938869  .00010331  00000-0  66603-3 0  9993,2 53260  53.2149 172.0451 0001124  87.0782 273.0339 15.08850227 44241,6917.849,95.437,540.492,538.937,0.0
53260.0,STARLINK-4136,PAYLOAD,2023-05-07 10:20:02,15.08855885,0.0001099,53.2145,170.5589,88.0558,272.056,0.00068282,0.00010601,0.0,0 STARLINK-4136,1 53260U 22086U   23127.43058594  .00010601  00000-0  68282-3 0  9994,2 53260  53.2145 170.5589 0001099  88.0558 272.0560 15.08855885 44470,6917.832,95.437,540.457,538.937,0.0
53260.0,STARLINK-4136,PAYLOAD,2023-05-07 19:52:21,15.08852256,9.93e-05,53.2136,168.7752,87.9713,272.1393,0.00031823,4.782e-05,0.0,0 STARLINK-4136,1 53260U 22086U   23127.82802395  .00004782  00000-0  31823-3 0  9997,2 53260  53.2136 168.7752 0000993  87.9713 272.1393 15.08852256 44355,6917.843,95.437,540.395,539.021,0.0
